[{"OBJECT_NAME":"OBJECT BE","OBJECT_ID":"2024-199BE","EPOCH":"2026-03-09T22:35:11.240448","MEAN_MOTION":15.34583634,"ECCENTRICITY":0.00126202,"INCLINATION":97.3163,"RA_OF_ASC_NODE":298.7137,"ARG_OF_PERICENTER":307.7021,"MEAN_ANOMALY":52.3078,"EPHEMERIS_TYPE":0,"CLASSIFICATION_TYPE":"U","NORAD_CAT_ID":61787,"ELEMENT_SET_NO":999,"REV_AT_EPOCH":12186,"BSTAR":0.00035348262,"MEAN_MOTION_DOT":0.00011799,"MEAN_MOTION_DDOT":0},{"OBJECT_NAME":"STARLINK-32643","OBJECT_ID":"2024-231R","EPOCH":"2026-03-09T15:47:30.413760","MEAN_MOTION":15.30202978,"ECCENTRICITY":9.939e-5,"INCLINATION":53.1595,"RA_OF_ASC_NODE":206.9878,"ARG_OF_PERICENTER":59.5811,"MEAN_ANOMALY":300.5288,"EPHEMERIS_TYPE":0,"CLASSIFICATION_TYPE":"U","NORAD_CAT_ID":62233,"ELEMENT_SET_NO":999,"REV_AT_EPOCH":7193,"BSTAR":0.00091721789,"MEAN_MOTION_DOT":0.00026907,"MEAN_MOTION_DDOT":0}]
